start=new Date('2023-04-05T00:00:00.000Z').valueOf();
sats=[{"MEAN_MOTION_DOT":"0.00001711","RA_OF_ASC_NODE":"84.3158","MEAN_ANOMALY":"279.7369","ARG_OF_PERICENTER":"80.3774","FILE":"3879974","MEAN_MOTION":"15.08843547","APOAPSIS":"540.659","OBJECT_NAME":"STARLINK-3530","PERIAPSIS":"538.810","DECAY_DATE":null,"EPHEMERIS_TYPE":"0","REV_AT_EPOCH":"6197","TLE_LINE2":"2 51730  53.2152  84.3158 0001336  80.3774 279.7369 15.08843547 61978","MEAN_ELEMENT_THEORY":"SGP4","CLASSIFICATION_TYPE":"U","INCLINATION":"53.2152","GP_ID":"229465948","TIME_SYSTEM":"UTC","BSTAR":"0.00012554000000","COUNTRY_CODE":"US","SITE":"AFETR","OBJECT_TYPE":"PAYLOAD","ELEMENT_SET_NO":"999","LAUNCH_DATE":"2022-02-21","RCS_SIZE":"LARGE","REF_FRAME":"TEME","PERIOD":"95.437","TLE_LINE1":"1 51730U 22016S   23094.29352967  .00001711  00000-0  12554-3 0  9998","OBJECT_ID":"2022-016S","SEMIMAJOR_AXIS":"6917.870","MEAN_MOTION_DDOT":"0.0000000000000","ECCENTRICITY":"0.00013360","CENTER_NAME":"EARTH","EPOCH":"2023-04-04T07:02:40.963488","NORAD_CAT_ID":"51730"},{"OBJECT_ID":"2022-016T","MEAN_MOTION_DDOT":"0.0000000000000","SEMIMAJOR_AXIS":"6917.861","CENTER_NAME":"EARTH","EPOCH":"2023-04-04T10:29:20.756256","ECCENTRICITY":"0.00012720","NORAD_CAT_ID":"51731","COUNTRY_CODE":"US","SITE":"AFETR","ELEMENT_SET_NO":"999","OBJECT_TYPE":"PAYLOAD","LAUNCH_DATE":"2022-02-21","REF_FRAME":"TEME","RCS_SIZE":"LARGE","TLE_LINE1":"1 51731U 22016T   23094.43704579  .00001152  00000-0  90411-4 0  9993","PERIOD":"95.437","DECAY_DATE":null,"EPHEMERIS_TYPE":"0","REV_AT_EPOCH":"6199","TLE_LINE2":"2 51731  53.2157  83.6673 0001272  87.4253 272.6885 15.08846272 61992","MEAN_ELEMENT_THEORY":"SGP4","CLASSIFICATION_TYPE":"U","INCLINATION":"53.2157","GP_ID":"229466698","TIME_SYSTEM":"UTC","BSTAR":"0.00009041100000","RA_OF_ASC_NODE":"83.6673","MEAN_MOTION_DOT":"0.00001152","MEAN_ANOMALY":"272.6885","ARG_OF_PERICENTER":"87.4253","FILE":"3879974","MEAN_MOTION":"15.08846272","APOAPSIS":"540.606","PERIAPSIS":"538.846","OBJECT_NAME":"STARLINK-3514"},{"EPHEMERIS_TYPE":"0","REV_AT_EPOCH":"6314","DECAY_DATE":null,"BSTAR":"0.00017249000000","TIME_SYSTEM":"UTC","GP_ID":"229473205","CLASSIFICATION_TYPE":"U","INCLINATION":"53.2162","MEAN_ELEMENT_THEORY":"SGP4","TLE_LINE2":"2 51732  53.2162  83.4359 0001476  89.4003 270.7158 15.08851593 63142","FILE":"3880168","ARG_OF_PERICENTER":"89.4003","MEAN_ANOMALY":"270.7158","RA_OF_ASC_NODE":"83.4359","MEAN_MOTION_DOT":"0.00002459","PERIAPSIS":"538.689","OBJECT_NAME":"STARLINK-3518","APOAPSIS":"540.731","MEAN_MOTION":"15.08851593","OBJECT_ID":"2022-016U","NORAD_CAT_ID":"51732","CENTER_NAME":"EARTH","EPOCH":"2023-04-04T11:43:31.801728","ECCENTRICITY":"0.00014760","MEAN_MOTION_DDOT":"0.0000000000000","SEMIMAJOR_AXIS":"6917.845","ELEMENT_SET_NO":"999","OBJECT_TYPE":"PAYLOAD","SITE":"AFETR","COUNTRY_CODE":"US","TLE_LINE1":"1 51732U 22016U   23094.48856252  .00002459  00000-0  17249-3 0  9993","PERIOD":"95.437","REF_FRAME":"TEME","RCS_SIZE":"LARGE","LAUNCH_DATE":"2022-02-21"},{"MEAN_MOTION":"15.08841847","OBJECT_NAME":"STARLINK-3525","PERIAPSIS":"538.852","APOAPSIS":"540.627","MEAN_MOTION_DOT":"0.00001480","RA_OF_ASC_NODE":"83.9977","FILE":"3879974","MEAN_ANOMALY":"269.8695","ARG_OF_PERICENTER":"90.2444","CLASSIFICATION_TYPE":"U","INCLINATION":"53.2166","MEAN_ELEMENT_THEORY":"SGP4","TLE_LINE2":"2 51733  53.2166  83.9977 0001283  90.2444 269.8695 15.08841847 61989","BSTAR":"0.00011106000000","TIME_SYSTEM":"UTC","GP_ID":"229465197","DECAY_DATE":null,"EPHEMERIS_TYPE":"0","REV_AT_EPOCH":"6198","RCS_SIZE":"LARGE","REF_FRAME":"TEME","LAUNCH_DATE":"2022-02-21","PERIOD":"95.437","TLE_LINE1":"1 51733U 22016V   23094.36345987  .00001480  00000-0  11106-3 0  9998","COUNTRY_CODE":"US","OBJECT_TYPE":"PAYLOAD","ELEMENT_SET_NO":"999","SITE":"AFETR","ECCENTRICITY":"0.00012830","EPOCH":"2023-04-04T08:43:22.932768","CENTER_NAME":"EARTH","SEMIMAJOR_AXIS":"6917.875","MEAN_MOTION_DDOT":"0.0000000000000","NORAD_CAT_ID":"51733","OBJECT_ID":"2022-016V"},{"RA_OF_ASC_NODE":"81.4053","MEAN_MOTION_DOT":"0.00000994","FILE":"3880211","MEAN_ANOMALY":"256.4764","ARG_OF_PERICENTER":"103.6392","MEAN_MOTION":"15.08835449","OBJECT_NAME":"STARLINK-3450","PERIAPSIS":"538.744","APOAPSIS":"540.775","DECAY_DATE":null,"EPHEMERIS_TYPE":"0","REV_AT_EPOCH":"6206","INCLINATION":"53.2163","CLASSIFICATION_TYPE":"U","MEAN_ELEMENT_THEORY":"SGP4","TLE_LINE2":"2 51734  53.2163  81.4053 0001468 103.6392 256.4764 15.08835449 62061","BSTAR":"0.00008052800000","GP_ID":"229496306","TIME_SYSTEM":"UTC","COUNTRY_CODE":"US","ELEMENT_SET_NO":"999","OBJECT_TYPE":"PAYLOAD","SITE":"AFETR","REF_FRAME":"TEME","RCS_SIZE":"LARGE","LAUNCH_DATE":"2022-02-21","TLE_LINE1":"1 51734U 22016W   23094.94121368  .00000994  00000-0  80528-4 0  9992","PERIOD":"95.438","OBJECT_ID":"2022-016W","CENTER_NAME":"EARTH","EPOCH":"2023-04-04T22:35:20.861952","ECCENTRICITY":"0.00014680","MEAN_MOTION_DDOT":"0.0000000000000","SEMIMAJOR_AXIS":"6917.894","NORAD_CAT_ID":"51734"},{"SITE":"AFETR","ELEMENT_SET_NO":"999","OBJECT_TYPE":"PAYLOAD","COUNTRY_CODE":"US","TLE_LINE1":"1 51735U 22016X   23094.48489063  .00004238  00000-0  28419-3 0  9996","PERIOD":"95.437","LAUNCH_DATE":"2022-02-21","REF_FRAME":"TEME","RCS_SIZE":"LARGE","OBJECT_ID":"2022-016X","NORAD_CAT_ID":"51735","MEAN_MOTION_DDOT":"0.0000000000000","SEMIMAJOR_AXIS":"6917.877","EPOCH":"2023-04-04T11:38:14.550432","CENTER_NAME":"EARTH","ECCENTRICITY":"0.00015240","MEAN_ANOMALY":"270.1347","ARG_OF_PERICENTER":"89.9820","FILE":"3879974","RA_OF_ASC_NODE":"83.4522","MEAN_MOTION_DOT":"0.00004238","APOAPSIS":"540.796","PERIAPSIS":"538.687","OBJECT_NAME":"STARLINK-3517","MEAN_MOTION":"15.08841199","REV_AT_EPOCH":"6200","EPHEMERIS_TYPE":"0","DECAY_DATE":null,"TIME_SYSTEM":"UTC","GP_ID":"229466199","BSTAR":"0.00028419000000","TLE_LINE2":"2 51735  53.2164  83.4522 0001524  89.9820 270.1347 15.08841199 62004","MEAN_ELEMENT_THEORY":"SGP4","INCLINATION":"53.2164","CLASSIFICATION_TYPE":"U"},{"LAUNCH_DATE":"2022-02-21","RCS_SIZE":"LARGE","REF_FRAME":"TEME","PERIOD":"95.437","TLE_LINE1":"1 51736U 22016Y   23094.33768647  .00002349  00000-0  16559-3 0  9992","COUNTRY_CODE":"US","SITE":"AFETR","OBJECT_TYPE":"PAYLOAD","ELEMENT_SET_NO":"999","SEMIMAJOR_AXIS":"6917.858","MEAN_MOTION_DDOT":"0.0000000000000","ECCENTRICITY":"0.00014360","CENTER_NAME":"EARTH","EPOCH":"2023-04-04T08:06:16.111008","NORAD_CAT_ID":"51736","OBJECT_ID":"2022-016Y","MEAN_MOTION":"15.08847201","APOAPSIS":"540.717","PERIAPSIS":"538.730","OBJECT_NAME":"STARLINK-3447","MEAN_MOTION_DOT":"0.00002349","RA_OF_ASC_NODE":"84.1182","ARG_OF_PERICENTER":"96.6716","MEAN_ANOMALY":"263.4439","FILE":"3879974","MEAN_ELEMENT_THEORY":"SGP4","TLE_LINE2":"2 51736  53.2165  84.1182 0001436  96.6716 263.4439 15.08847201 61979","INCLINATION":"53.2165","CLASSIFICATION_TYPE":"U","GP_ID":"229464947","TIME_SYSTEM":"UTC","BSTAR":"0.00016559000000","DECAY_DATE":null,"EPHEMERIS_TYPE":"0","REV_AT_EPOCH":"6197"},{"BSTAR":"0.00063912000000","GP_ID":"229465698","TIME_SYSTEM":"UTC","CLASSIFICATION_TYPE":"U","INCLINATION":"53.2147","TLE_LINE2":"2 51737  53.2147  84.0644 0001272  95.3836 264.7301 15.08869236 61973","MEAN_ELEMENT_THEORY":"SGP4","REV_AT_EPOCH":"6197","EPHEMERIS_TYPE":"0","DECAY_DATE":null,"OBJECT_NAME":"STARLINK-3509","PERIAPSIS":"538.776","APOAPSIS":"540.536","MEAN_MOTION":"15.08869236","FILE":"3879974","MEAN_ANOMALY":"264.7301","ARG_OF_PERICENTER":"95.3836","RA_OF_ASC_NODE":"84.0644","MEAN_MOTION_DOT":"0.00009906","NORAD_CAT_ID":"51737","EPOCH":"2023-04-04T08:22:10.136352","CENTER_NAME":"EARTH","ECCENTRICITY":"0.00012720","MEAN_MOTION_DDOT":"0.0000000000000","SEMIMAJOR_AXIS":"6917.791","OBJECT_ID":"2022-016Z","TLE_LINE1":"1 51737U 22016Z   23094.34872843  .00009906  00000-0  63912-3 0  9999","PERIOD":"95.436","REF_FRAME":"TEME","RCS_SIZE":"LARGE","LAUNCH_DATE":"2022-02-21","ELEMENT_SET_NO":"999","OBJECT_TYPE":"PAYLOAD","SITE":"AFETR","COUNTRY_CODE":"US"},{"BSTAR":"0.00013554000000","GP_ID":"229465949","TIME_SYSTEM":"UTC","INCLINATION":"53.2162","CLASSIFICATION_TYPE":"U","TLE_LINE2":"2 51738  53.2162  84.4471 0001412 102.5701 257.5449 15.08846127 61967","MEAN_ELEMENT_THEORY":"SGP4","EPHEMERIS_TYPE":"0","REV_AT_EPOCH":"6196","DECAY_DATE":null,"PERIAPSIS":"538.750","OBJECT_NAME":"STARLINK-3515","APOAPSIS":"540.703","MEAN_MOTION":"15.08846127","FILE":"3879974","MEAN_ANOMALY":"257.5449","ARG_OF_PERICENTER":"102.5701","MEAN_MOTION_DOT":"0.00001870","RA_OF_ASC_NODE":"84.4471","NORAD_CAT_ID":"51738","ECCENTRICITY":"0.00014120","EPOCH":"2023-04-04T06:20:17.017440","CENTER_NAME":"EARTH","SEMIMAJOR_AXIS":"6917.862","MEAN_MOTION_DDOT":"0.0000000000000","OBJECT_ID":"2022-016AA","PERIOD":"95.437","TLE_LINE1":"1 51738U 22016AA  23094.26408585  .00001870  00000-0  13554-3 0  9998","RCS_SIZE":"LARGE","REF_FRAME":"TEME","LAUNCH_DATE":"2022-02-21","OBJECT_TYPE":"PAYLOAD","ELEMENT_SET_NO":"999","SITE":"AFETR","COUNTRY_CODE":"US"},{"MEAN_MOTION":"15.08849389","APOAPSIS":"540.640","PERIAPSIS":"538.793","OBJECT_NAME":"STARLINK-3516","MEAN_MOTION_DOT":"0.00001729","RA_OF_ASC_NODE":"83.8004","ARG_OF_PERICENTER":"101.3152","MEAN_ANOMALY":"258.7990","FILE":"3879974","TLE_LINE2":"2 51739  53.2153  83.8004 0001335 101.3152 258.7990 15.08849389 61983","MEAN_ELEMENT_THEORY":"SGP4","INCLINATION":"53.2153","CLASSIFICATION_TYPE":"U","TIME_SYSTEM":"UTC","GP_ID":"229466699","BSTAR":"0.00012667000000","DECAY_DATE":null,"REV_AT_EPOCH":"6198","EPHEMERIS_TYPE":"0","LAUNCH_DATE":"2022-02-21","RCS_SIZE":"LARGE","REF_FRAME":"TEME","PERIOD":"95.437","TLE_LINE1":"1 51739U 22016AB  23094.40760317  .00001729  00000-0  12667-3 0  9996","COUNTRY_CODE":"US","SITE":"AFETR","OBJECT_TYPE":"PAYLOAD","ELEMENT_SET_NO":"999","SEMIMAJOR_AXIS":"6917.852","MEAN_MOTION_DDOT":"0.0000000000000","ECCENTRICITY":"0.00013350","CENTER_NAME":"EARTH","EPOCH":"2023-04-04T09:46:56.913888","NORAD_CAT_ID":"51739","OBJECT_ID":"2022-016AB"}];
